NAVSTAR 48 (USA 151)    
1 26407U 00040A   26159.26659230  .00000050  00000+0  00000+0 0  9992
2 26407  54.8525 215.5168 0121153 302.4224  20.4344  2.00557619189761
NAVSTAR 51 (USA 166)    
1 27663U 03005A   26158.67534595  .00000046  00000+0  00000+0 0  9996
2 27663  54.8836 215.3470 0147938  53.0681 338.7742  2.00561087171122
NAVSTAR 54 (USA 177)    
1 28190U 04009A   26158.92173862 -.00000038  00000+0  00000+0 0  9993
2 28190  54.8377 276.0618 0115764 172.6979 190.3970  2.00555033162765
NAVSTAR 56 (USA 180)    
1 28474U 04045A   26158.35392840 -.00000059  00000+0  00000+0 0  9997
2 28474  55.1426 325.2921 0169835 316.1621  61.9097  2.00555497158234
NAVSTAR 57 (USA 183)    
1 28874U 05038A   26158.40402625 -.00000035  00000+0  00000+0 0  9997
2 28874  54.8864 273.5725 0127805 296.0848  81.4655  2.00566372151644
NAVSTAR 58 (USA 190)    
1 29486U 06042A   26157.27303984  .00000092  00000+0  00000+0 0  9997
2 29486  54.7093 151.7723 0106366  54.1524 125.0487  2.00570539144173
NAVSTAR 59 (USA 192)    
1 29601U 06052A   26157.94797652  .00000043  00000+0  00000+0 0  9996
2 29601  54.9360 214.4122 0085328  90.7654 270.2902  2.00557676143200
NAVSTAR 60 (USA 196)    
1 32260U 07047A   26158.25285660 -.00000010  00000+0  00000+0 0  9997
2 32260  54.0881  80.4752 0166381  87.1871 274.7184  2.00555752136615
NAVSTAR 61 (USA 199)    
1 32384U 07062A   26158.55549145 -.00000036  00000+0  00000+0 0  9993
2 32384  55.0397 274.5401 0035561 165.0044 180.7176  2.00559526135311
NAVSTAR 62 (USA 201)    
1 32711U 08012A   26159.16217670  .00000108  00000+0  00000+0 0  9995
2 32711  54.4962 150.2852 0211085 247.7327 110.0225  2.00572197133571
NAVSTAR 64 (USA 206)    
1 35752U 09043A   26159.30365118 -.00000067  00000+0  00000+0 0  9990
2 35752  56.2048  27.8007 0053714  82.8286  29.7907  2.00554745123188
NAVSTAR 65 (USA 213)    
1 36585U 10022A   26157.59368921  .00000048  00000+0  00000+0 0  9996
2 36585  54.2711 208.9891 0126320  66.1226  10.1575  2.00561927117384
